[{"OBJECT_NAME":"STARLINK-1559","OBJECT_ID":"2020-055BC","EPOCH":"2026-03-09T05:36:23.522976","MEAN_MOTION":15.29461733,"ECCENTRICITY":0.0004229,"INCLINATION":53.0254,"RA_OF_ASC_NODE":76.0659,"ARG_OF_PERICENTER":33.971,"MEAN_ANOMALY":326.1559,"EPHEMERIS_TYPE":0,"CLASSIFICATION_TYPE":"U","NORAD_CAT_ID":46077,"ELEMENT_SET_NO":999,"REV_AT_EPOCH":30951,"BSTAR":0.0014778793,"MEAN_MOTION_DOT":0.00042685,"MEAN_MOTION_DDOT":0},{"OBJECT_NAME":"STARLINK-35019","OBJECT_ID":"2025-198X","EPOCH":"2026-03-09T22:15:22.550976","MEAN_MOTION":15.30209503,"ECCENTRICITY":9.989e-5,"INCLINATION":53.1569,"RA_OF_ASC_NODE":270.0896,"ARG_OF_PERICENTER":204.1444,"MEAN_ANOMALY":155.951,"EPHEMERIS_TYPE":0,"CLASSIFICATION_TYPE":"U","NORAD_CAT_ID":65513,"ELEMENT_SET_NO":999,"REV_AT_EPOCH":2865,"BSTAR":0.00093261601,"MEAN_MOTION_DOT":0.00027372,"MEAN_MOTION_DDOT":0}]
